{
  "updated": "2026-07-12T14:51:21.443Z",
  "capsules": {
    "66664": {
      "name": "SOYUZ-MS 28",
      "kind": "crew",
      "family": "soyuz",
      "phase": "docked",
      "stationKey": "iss",
      "since": "2026-07-03T10:34:14.509Z",
      "distanceKm": 0,
      "altitudeKm": 427.3,
      "inclinationDeg": 51.63,
      "l1": "1 66664U 25275A   26193.15356419  .00004878  00000+0  96681-4 0  9994",
      "l2": "2 66664  51.6303 176.5328 0006700 285.7692  74.2557 15.48987212646162"
    },
    "67796": {
      "name": "CREW DRAGON 12",
      "kind": "crew",
      "family": "dragon",
      "phase": "docked",
      "stationKey": "iss",
      "since": "2026-07-03T10:34:14.509Z",
      "distanceKm": 0,
      "altitudeKm": 427.3,
      "inclinationDeg": 51.63,
      "l1": "1 67796U 26031A   26193.15356419  .00004878  00000+0  96681-4 0  9992",
      "l2": "2 67796  51.6303 176.5328 0006700 285.7692  74.2557 15.48987212628484"
    },
    "68319": {
      "name": "PROGRESS-MS 33",
      "kind": "cargo",
      "family": "progress",
      "phase": "docked",
      "stationKey": "iss",
      "since": "2026-07-10T20:18:26.588Z",
      "distanceKm": 0,
      "altitudeKm": 427.3,
      "inclinationDeg": 51.63,
      "l1": "1 68319U 26058A   26193.15356419  .00004878  00000+0  96681-4 0  9993",
      "l2": "2 68319  51.6303 176.5328 0006700 285.7692  74.2557 15.48987212663890"
    },
    "68689": {
      "name": "CYGNUS NG-24",
      "kind": "cargo",
      "family": "cygnus",
      "phase": "docked",
      "stationKey": "iss",
      "since": "2026-07-10T20:18:26.588Z",
      "distanceKm": 0,
      "altitudeKm": 427.3,
      "inclinationDeg": 51.63,
      "l1": "1 68689U 26079A   26193.15356419  .00004878  00000+0  96681-4 0  9996",
      "l2": "2 68689  51.6303 176.5328 0006700 285.7692  74.2557 15.48987212681676"
    },
    "68837": {
      "name": "PROGRESS-MS 34",
      "kind": "cargo",
      "family": "progress",
      "phase": "docked",
      "stationKey": "iss",
      "since": "2026-07-10T20:18:26.588Z",
      "distanceKm": 0,
      "altitudeKm": 427.3,
      "inclinationDeg": 51.63,
      "l1": "1 68837U 26093A   26193.15356419  .00004878  00000+0  96681-4 0  9997",
      "l2": "2 68837  51.6303 176.5328 0006700 285.7692  74.2557 15.48987212699401"
    },
    "69049": {
      "name": "TIANZHOU-10",
      "kind": "cargo",
      "family": "tianzhou",
      "phase": "docked",
      "stationKey": "css",
      "since": "2026-07-10T20:18:26.588Z",
      "distanceKm": 0,
      "altitudeKm": 402.7,
      "inclinationDeg": 41.469,
      "l1": "1 69049U 26102A   26193.26640833  .00000809  00000+0  14738-4 0  9995",
      "l2": "2 69049  41.4687 169.5849 0002450 291.0360  69.0216 15.58035047296418"
    },
    "69180": {
      "name": "SHENZHOU-23 (SZ-23)",
      "kind": "crew",
      "family": "shenzhou",
      "phase": "docked",
      "stationKey": "css",
      "since": "2026-07-03T10:34:14.509Z",
      "distanceKm": 0,
      "altitudeKm": 402.7,
      "inclinationDeg": 41.469,
      "l1": "1 69180U 26113A   26193.26640833  .00000809  00000+0  14738-4 0  9993",
      "l2": "2 69180  41.4687 169.5849 0002450 291.0360  69.0216 15.58035047296054"
    }
  },
  "events": [
    {
      "id": "68319",
      "name": "PROGRESS-MS 33",
      "kind": "cargo",
      "family": "progress",
      "stationKey": "iss",
      "event": "launched",
      "at": "2026-07-10T20:18:26.588Z"
    },
    {
      "id": "68689",
      "name": "CYGNUS NG-24",
      "kind": "cargo",
      "family": "cygnus",
      "stationKey": "iss",
      "event": "launched",
      "at": "2026-07-10T20:18:26.588Z"
    },
    {
      "id": "68837",
      "name": "PROGRESS-MS 34",
      "kind": "cargo",
      "family": "progress",
      "stationKey": "iss",
      "event": "launched",
      "at": "2026-07-10T20:18:26.588Z"
    },
    {
      "id": "69049",
      "name": "TIANZHOU-10",
      "kind": "cargo",
      "family": "tianzhou",
      "stationKey": "css",
      "event": "launched",
      "at": "2026-07-10T20:18:26.588Z"
    }
  ]
}
